{
  "type": "FeatureCollection",
  "features": [
    {
      "type": "Feature",
      "properties": {
        "norad_id": 66990,
        "name": "TJS-22",
        "group": "last-30-days",
        "lat": 8.93234966208943,
        "lon": -35.08343025883704,
        "alt_km": 29902.258234102166,
        "timestamp": "2025-12-16T21:38:55.920223+00:00",
        "meta_object_name": "TJS-22",
        "meta_object_id": "2025-290A",
        "meta_epoch": "2025-12-10T07:11:32.845344",
        "meta_mean_motion": 2.15443148,
        "meta_eccentricity": 0.6664534,
        "meta_inclination": 20.1261,
        "meta_ra_of_asc_node": 301.1464,
        "meta_arg_of_pericenter": 180.6877,
        "meta_mean_anomaly": 177.6237,
        "meta_ephemeris_type": 0,
        "meta_classification_type": "U",
        "meta_norad_cat_id": 66990,
        "meta_element_set_no": 999,
        "meta_rev_at_epoch": 3,
        "meta_bstar": 0.079788243,
        "meta_mean_motion_dot": -3.8e-07,
        "meta_mean_motion_ddot": 0,
        "tle_line1": "1 66990U 25290A   25344.29968571 -.00000038  00000+0  79788-1 0  9994",
        "tle_line2": "2 66990  20.1261 301.1464 6664534 180.6877 177.6237  2.15443148    32"
      },
      "geometry": {
        "type": "Point",
        "coordinates": [
          -35.08343025883704,
          8.93234966208943
        ]
      }
    },
    {
      "type": "Feature",
      "properties": {
        "norad_id": 66991,
        "name": "CZ-3B R/B",
        "group": "last-30-days",
        "lat": -8.195365389428478,
        "lon": -75.3939751925607,
        "alt_km": 28482.81633307924,
        "timestamp": "2025-12-16T21:38:55.920235+00:00",
        "meta_object_name": "CZ-3B R/B",
        "meta_object_id": "2025-290B",
        "meta_epoch": "2025-12-15T17:23:33.043200",
        "meta_mean_motion": 2.38388611,
        "meta_eccentricity": 0.7240884,
        "meta_inclination": 28.4636,
        "meta_ra_of_asc_node": 300.4666,
        "meta_arg_of_pericenter": 182.7002,
        "meta_mean_anomaly": 168.625,
        "meta_ephemeris_type": 0,
        "meta_classification_type": "U",
        "meta_norad_cat_id": 66991,
        "meta_element_set_no": 999,
        "meta_rev_at_epoch": 16,
        "meta_bstar": 0.00075879,
        "meta_mean_motion_dot": 0.00057911,
        "meta_mean_motion_ddot": -2.0514e-07,
        "tle_line1": "1 66991U 25290B   25349.72468800  .00057911 -20514-6  75879-3 0  9998",
        "tle_line2": "2 66991  28.4636 300.4666 7240884 182.7002 168.6250  2.38388611   165"
      },
      "geometry": {
        "type": "Point",
        "coordinates": [
          -75.3939751925607,
          -8.195365389428478
        ]
      }
    },
    {
      "type": "Feature",
      "properties": {
        "norad_id": 66993,
        "name": "2025-292A",
        "group": "last-30-days",
        "lat": -25.933609426821793,
        "lon": -120.33637057298888,
        "alt_km": 552.7233325391835,
        "timestamp": "2025-12-16T21:38:55.920246+00:00",
        "meta_object_name": "2025-292A",
        "meta_object_id": "2025-292A",
        "meta_epoch": "2025-12-16T06:22:07.584384",
        "meta_mean_motion": 15.04520062,
        "meta_eccentricity": 0.00137912,
        "meta_inclination": 97.6536,
        "meta_ra_of_asc_node": 62.7826,
        "meta_arg_of_pericenter": 259.6392,
        "meta_mean_anomaly": 100.328,
        "meta_ephemeris_type": 0,
        "meta_classification_type": "U",
        "meta_norad_cat_id": 66993,
        "meta_element_set_no": 999,
        "meta_rev_at_epoch": 92,
        "meta_bstar": 0.00023192554,
        "meta_mean_motion_dot": 3.193e-05,
        "meta_mean_motion_ddot": 0,
        "tle_line1": "1 66993U 25292A   25350.26536556  .00003193  00000+0  23193-3 0  9992",
        "tle_line2": "2 66993  97.6536  62.7826 0013791 259.6392 100.3280 15.04520062   929"
      },
      "geometry": {
        "type": "Point",
        "coordinates": [
          -120.33637057298888,
          -25.933609426821793
        ]
      }
    },
    {
      "type": "Feature",
      "properties": {
        "norad_id": 66994,
        "name": "2025-292B",
        "group": "last-30-days",
        "lat": -27.0735358007424,
        "lon": -120.52765252325759,
        "alt_km": 552.6590247324202,
        "timestamp": "2025-12-16T21:38:55.920257+00:00",
        "meta_object_name": "2025-292B",
        "meta_object_id": "2025-292B",
        "meta_epoch": "2025-12-16T07:57:37.285056",
        "meta_mean_motion": 15.04573254,
        "meta_eccentricity": 0.00135719,
        "meta_inclination": 97.6545,
        "meta_ra_of_asc_node": 62.8492,
        "meta_arg_of_pericenter": 259.9529,
        "meta_mean_anomaly": 100.0166,
        "meta_ephemeris_type": 0,
        "meta_classification_type": "U",
        "meta_norad_cat_id": 66994,
        "meta_element_set_no": 999,
        "meta_rev_at_epoch": 93,
        "meta_bstar": 0.00027550413,
        "meta_mean_motion_dot": 3.81e-05,
        "meta_mean_motion_ddot": 0,
        "tle_line1": "1 66994U 25292B   25350.33168154  .00003810  00000+0  27550-3 0  9993",
        "tle_line2": "2 66994  97.6545  62.8492 0013571 259.9529 100.0166 15.04573254   933"
      },
      "geometry": {
        "type": "Point",
        "coordinates": [
          -120.52765252325759,
          -27.0735358007424
        ]
      }
    },
    {
      "type": "Feature",
      "properties": {
        "norad_id": 66995,
        "name": "2025-292C",
        "group": "last-30-days",
        "lat": -27.197223228905333,
        "lon": -120.54880361661304,
        "alt_km": 552.5268185453842,
        "timestamp": "2025-12-16T21:38:55.920267+00:00",
        "meta_object_name": "2025-292C",
        "meta_object_id": "2025-292C",
        "meta_epoch": "2025-12-16T06:21:49.410144",
        "meta_mean_motion": 15.04580851,
        "meta_eccentricity": 0.00138387,
        "meta_inclination": 97.6536,
        "meta_ra_of_asc_node": 62.7828,
        "meta_arg_of_pericenter": 260.3237,
        "meta_mean_anomaly": 99.6426,
        "meta_ephemeris_type": 0,
        "meta_classification_type": "U",
        "meta_norad_cat_id": 66995,
        "meta_element_set_no": 999,
        "meta_rev_at_epoch": 92,
        "meta_bstar": 0.00030228775,
        "meta_mean_motion_dot": 4.188e-05,
        "meta_mean_motion_ddot": 0,
        "tle_line1": "1 66995U 25292C   25350.26515521  .00004188  00000+0  30229-3 0  9996",
        "tle_line2": "2 66995  97.6536  62.7828 0013838 260.3237  99.6426 15.04580851   926"
      },
      "geometry": {
        "type": "Point",
        "coordinates": [
          -120.54880361661304,
          -27.197223228905333
        ]
      }
    },
    {
      "type": "Feature",
      "properties": {
        "norad_id": 66996,
        "name": "2025-292D",
        "group": "last-30-days",
        "lat": -28.398825783325766,
        "lon": -120.75526078371338,
        "alt_km": 553.0367425048953,
        "timestamp": "2025-12-16T21:38:55.920277+00:00",
        "meta_object_name": "2025-292D",
        "meta_object_id": "2025-292D",
        "meta_epoch": "2025-12-16T06:21:31.639392",
        "meta_mean_motion": 15.04620982,
        "meta_eccentricity": 0.00130234,
        "meta_inclination": 97.6529,
        "meta_ra_of_asc_node": 62.7828,
        "meta_arg_of_pericenter": 263.055,
        "meta_mean_anomaly": 96.9195,
        "meta_ephemeris_type": 0,
        "meta_classification_type": "U",
        "meta_norad_cat_id": 66996,
        "meta_element_set_no": 999,
        "meta_rev_at_epoch": 92,
        "meta_bstar": 0.00021824146,
        "meta_mean_motion_dot": 3.008e-05,
        "meta_mean_motion_ddot": 0,
        "tle_line1": "1 66996U 25292D   25350.26494953  .00003008  00000+0  21824-3 0  9993",
        "tle_line2": "2 66996  97.6529  62.7828 0013023 263.0550  96.9195 15.04620982   926"
      },
      "geometry": {
        "type": "Point",
        "coordinates": [
          -120.75526078371338,
          -28.398825783325766
        ]
      }
    },
    {
      "type": "Feature",
      "properties": {
        "norad_id": 66997,
        "name": "2025-292E",
        "group": "last-30-days",
        "lat": -30.292477514613523,
        "lon": -121.09032442751271,
        "alt_km": 552.6252580722348,
        "timestamp": "2025-12-16T21:38:55.920287+00:00",
        "meta_object_name": "2025-292E",
        "meta_object_id": "2025-292E",
        "meta_epoch": "2025-12-16T06:21:03.950784",
        "meta_mean_motion": 15.04703314,
        "meta_eccentricity": 0.00133764,
        "meta_inclination": 97.6551,
        "meta_ra_of_asc_node": 62.7846,
        "meta_arg_of_pericenter": 263.9185,
        "meta_mean_anomaly": 96.0517,
        "meta_ephemeris_type": 0,
        "meta_classification_type": "U",
        "meta_norad_cat_id": 66997,
        "meta_element_set_no": 999,
        "meta_rev_at_epoch": 91,
        "meta_bstar": 0.00023480214,
        "meta_mean_motion_dot": 3.249e-05,
        "meta_mean_motion_ddot": 0,
        "tle_line1": "1 66997U 25292E   25350.26462906  .00003249  00000+0  23480-3 0  9994",
        "tle_line2": "2 66997  97.6551  62.7846 0013376 263.9185  96.0517 15.04703314   915"
      },
      "geometry": {
        "type": "Point",
        "coordinates": [
          -121.09032442751271,
          -30.292477514613523
        ]
      }
    }
  ]
}